EUTELSAT 21B            
1 38992U 12062B   25296.26748789  .00000142  00000+0  00000+0 0  9992
2 38992   0.0718 355.3098 0003002 233.8399 280.7549  1.00275718 47450
EUTELSAT 70B            
1 39020U 12069A   25296.49127304 -.00000032  00000+0  00000+0 0  9990
2 39020   0.0668   4.9751 0004331 207.7564  66.7975  1.00271585 47138
EUTELSAT 117 WEST A     
1 39122U 13012A   25296.52541987 -.00000002  00000+0  00000+0 0  9990
2 39122   0.0036 322.5244 0002619 248.7963 253.2354  1.00272531 46068
EUTELSAT 7B             
1 39163U 13022A   25296.35233437  .00000059  00000+0  00000+0 0  9996
2 39163   0.0731  12.6779 0001827 299.9902 213.2162  1.00270749 45584
EXPRESS-AT1             
1 39612U 14010A   25296.67180911  .00000090  00000+0  00000+0 0  9991
2 39612   0.0153 246.5017 0000569 231.6922 212.0111  1.00271300 42448
EXPRESS-AT2             
1 39613U 14010B   25296.50496644 -.00000269  00000+0  00000+0 0  9996
2 39613   0.0190 245.0610 0000279 209.2003 259.5797  1.00272531 42120
EUTELSAT 3B             
1 39773U 14030A   25296.32455781  .00000031  00000+0  00000+0 0  9998
2 39773   0.0684   8.7590 0004377 193.4193 309.7709  1.00272184 41699
EUTELSAT 115 WEST B     
1 40425U 15010B   25296.46155943 -.00000014  00000+0  00000+0 0  9997
2 40425   0.0145  86.8822 0000214 199.9127 156.6248  1.00273210 39017
